{
    "links": {
        "self": "http://www.neowsapp.com/rest/v1/neo/3840843?api_key=iIulBulltgU6a56xZRHN4H3l9WmuAYTsLGpBGhQ2"
    },
    "id": "3840843",
    "neo_reference_id": "3840843",
    "name": "(2019 GL3)",
    "designation": "2019 GL3",
    "nasa_jpl_url": "http://ssd.jpl.nasa.gov/sbdb.cgi?sstr=3840843",
    "absolute_magnitude_h": 26.6,
    "estimated_diameter": {
        "kilometers": {
            "estimated_diameter_min": 0.0127219879,
            "estimated_diameter_max": 0.0284472297
        },
        "meters": {
            "estimated_diameter_min": 12.7219878539,
            "estimated_diameter_max": 28.4472296503
        },
        "miles": {
            "estimated_diameter_min": 0.0079050743,
            "estimated_diameter_max": 0.0176762835
        },
        "feet": {
            "estimated_diameter_min": 41.7388066307,
            "estimated_diameter_max": 93.330808926
        }
    },
    "is_potentially_hazardous_asteroid": false,
    "close_approach_data": [
        {
            "close_approach_date": "1964-12-24",
            "close_approach_date_full": "1964-Dec-24 19:29",
            "epoch_date_close_approach": -158387460000,
            "relative_velocity": {
                "kilometers_per_second": "9.7191906976",
                "kilometers_per_hour": "34989.0865112385",
                "miles_per_hour": "21740.857671386"
            },
            "miss_distance": {
                "astronomical": "0.0743610567",
                "lunar": "28.9264510563",
                "kilometers": "11124255.693269229",
                "miles": "6912291.9605602002"
            },
            "orbiting_body": "Earth"
        },
        {
            "close_approach_date": "1977-12-11",
            "close_approach_date_full": "1977-Dec-11 02:01",
            "epoch_date_close_approach": 250653660000,
            "relative_velocity": {
                "kilometers_per_second": "14.0771378781",
                "kilometers_per_hour": "50677.6963612198",
                "miles_per_hour": "31489.149719559"
            },
            "miss_distance": {
                "astronomical": "0.1504261319",
                "lunar": "58.5157653091",
                "kilometers": "22503428.924579053",
                "miles": "13982982.3342268114"
            },
            "orbiting_body": "Earth"
        },
        {
            "close_approach_date": "1980-05-02",
            "close_approach_date_full": "1980-May-02 06:35",
            "epoch_date_close_approach": 326097300000,
            "relative_velocity": {
                "kilometers_per_second": "23.9595989346",
                "kilometers_per_hour": "86254.556164735",
                "miles_per_hour": "53595.2268569155"
            },
            "miss_distance": {
                "astronomical": "0.4647583481",
                "lunar": "180.7909974109",
                "kilometers": "69526858.940478547",
                "miles": "43201986.8428640686"
            },
            "orbiting_body": "Earth"
        },
        {
            "close_approach_date": "2019-04-02",
            "close_approach_date_full": "2019-Apr-02 12:10",
            "epoch_date_close_approach": 1554207000000,
            "relative_velocity": {
                "kilometers_per_second": "10.5405013629",
                "kilometers_per_hour": "37945.8049064011",
                "miles_per_hour": "23578.0474986469"
            },
            "miss_distance": {
                "astronomical": "0.0095983814",
                "lunar": "3.7337703646",
                "kilometers": "1435897.412887618",
                "miles": "892225.2793324084"
            },
            "orbiting_body": "Earth"
        }
    ],
    "orbital_data": {
        "orbit_id": "3",
        "orbit_determination_date": "2019-04-15 15:01:32",
        "first_observation_date": "2019-04-03",
        "last_observation_date": "2019-04-09",
        "data_arc_in_days": 6,
        "observations_used": 61,
        "orbit_uncertainty": "7",
        "minimum_orbit_intersection": ".00448837",
        "jupiter_tisserand_invariant": "4.091",
        "epoch_osculation": "2459000.5",
        "eccentricity": ".4754951248291098",
        "semi_major_axis": "1.681969367128455",
        "inclination": "4.445391874805495",
        "ascending_node_longitude": "14.54531912604571",
        "orbital_period": "796.7563800522557",
        "perihelion_distance": ".8822011329469714",
        "perihelion_argument": "126.0326779517279",
        "aphelion_distance": "2.481737601309938",
        "perihelion_time": "2459334.183301850100",
        "mean_anomaly": "209.2312183830174",
        "mean_motion": ".4518319639641784",
        "equinox": "J2000",
        "orbit_class": {
            "orbit_class_type": "APO",
            "orbit_class_description": "Near-Earth asteroid orbits which cross the Earth’s orbit similar to that of 1862 Apollo",
            "orbit_class_range": "a (semi-major axis) > 1.0 AU; q (perihelion) < 1.017 AU"
        }
    },
    "is_sentry_object": false
}